IRIDIUM 39              
1 25042U 97069D   25212.45643261  .00000633  00000+0  16044-3 0  9996
2 25042  86.3939 192.1599 0018736 152.4049 207.8153 14.49260354455377
IRIDIUM 38              
1 25043U 97069E   25212.56018715  .00000432  00000+0  13616-3 0  9998
2 25043  86.3950 214.4894 0001588  31.5976 328.5317 14.38145793452333
IRIDIUM 42              
1 25077U 97077A   25212.48157216  .00000361  00000+0  11674-3 0  9998
2 25077  86.3947 220.7449 0002023  69.8454 290.2961 14.36378244447557
IRIDIUM 44              
1 25078U 97077B   25212.52492150  .00000441  00000+0  13324-3 0  9996
2 25078  86.3969 202.5431 0001014 144.1947 215.9320 14.40269041450088
IRIDIUM 45              
1 25104U 97082A   25212.54051461  .00026377  00000+0  91153-3 0  9992
2 25104  86.3578  26.3259 0114485 164.3780 196.1049 15.23640101458796
IRIDIUM 24              
1 25105U 97082B   25212.57964180  .00000431  00000+0  12497-3 0  9994
2 25105  86.3866  61.4614 0009463 296.9128  63.1104 14.42131758449618
IRIDIUM 51              
1 25262U 98018A   25212.51560258  .00041120  00000+0  83298-3 0  9997
2 25262  86.3811  33.8319 0083517  79.8538 281.2124 15.42445847453856
IRIDIUM 57              
1 25273U 98019B   25212.49265288  .00000351  00000+0  11418-3 0  9998
2 25273  86.3985 126.7072 0002117  83.9627 276.1810 14.35917770431143
